{"fetched_at":"2026-07-12T17:32:25.735Z","source":"https://celestrak.org/NORAD/elements/gp.php?GROUP=planet&FORMAT=JSON","constellation":"superdove","records":[{"OBJECT_NAME":"FLOCK 4BE-17","OBJECT_ID":"2024-149AA","EPOCH":"2026-07-11T17:09:36.259200","CLASSIFICATION_TYPE":"U","MEAN_MOTION":15.40497548,"ECCENTRICITY":0.00041455,"INCLINATION":97.3773,"RA_OF_ASC_NODE":276.2883,"ARG_OF_PERICENTER":155.3826,"MEAN_ANOMALY":204.7619,"EPHEMERIS_TYPE":0,"NORAD_CAT_ID":60492,"ELEMENT_SET_NO":999,"REV_AT_EPOCH":10603,"BSTAR":0.00023253259,"MEAN_MOTION_DOT":0.00009349,"MEAN_MOTION_DDOT":0},{"OBJECT_NAME":"FLOCK 4BE-22","OBJECT_ID":"2024-149AC","EPOCH":"2026-07-11T19:17:58.024320","CLASSIFICATION_TYPE":"U","MEAN_MOTION":15.41913954,"ECCENTRICITY":0.00044783,"INCLINATION":97.3734,"RA_OF_ASC_NODE":276.6096,"ARG_OF_PERICENTER":163.9303,"MEAN_ANOMALY":196.2087,"EPHEMERIS_TYPE":0,"NORAD_CAT_ID":60494,"ELEMENT_SET_NO":999,"REV_AT_EPOCH":10609,"BSTAR":0.00023075198,"MEAN_MOTION_DOT":0.00009725,"MEAN_MOTION_DDOT":0},{"OBJECT_NAME":"FLOCK 4BE-34","OBJECT_ID":"2024-149AD","EPOCH":"2026-07-12T12:51:07.918848","CLASSIFICATION_TYPE":"U","MEAN_MOTION":15.41894751,"ECCENTRICITY":0.000461,"INCLINATION":97.378,"RA_OF_ASC_NODE":278.1859,"ARG_OF_PERICENTER":168.089,"MEAN_ANOMALY":192.0467,"EPHEMERIS_TYPE":0,"NORAD_CAT_ID":60495,"ELEMENT_SET_NO":999,"REV_AT_EPOCH":10623,"BSTAR":0.00024489,"MEAN_MOTION_DOT":0.0001032,"MEAN_MOTION_DDOT":0},{"OBJECT_NAME":"FLOCK 4BE-32","OBJECT_ID":"2024-149AF","EPOCH":"2026-07-11T18:33:34.183584","CLASSIFICATION_TYPE":"U","MEAN_MOTION":15.43005273,"ECCENTRICITY":0.00045975,"INCLINATION":97.3718,"RA_OF_ASC_NODE":276.9792,"ARG_OF_PERICENTER":167.9865,"MEAN_ANOMALY":192.1493,"EPHEMERIS_TYPE":0,"NORAD_CAT_ID":60497,"ELEMENT_SET_NO":999,"REV_AT_EPOCH":10612,"BSTAR":0.00026599874,"MEAN_MOTION_DOT":0.00011644,"MEAN_MOTION_DDOT":0},{"OBJECT_NAME":"FLOCK 4BE-11","OBJECT_ID":"2024-149AK","EPOCH":"2026-07-10T04:47:11.653152","CLASSIFICATION_TYPE":"U","MEAN_MOTION":15.43759592,"ECCENTRICITY":0.00045665,"INCLINATION":97.3696,"RA_OF_ASC_NODE":275.6385,"ARG_OF_PERICENTER":172.587,"MEAN_ANOMALY":187.5446,"EPHEMERIS_TYPE":0,"NORAD_CAT_ID":60501,"ELEMENT_SET_NO":999,"REV_AT_EPOCH":10590,"BSTAR":0.00031749865,"MEAN_MOTION_DOT":0.00014279,"MEAN_MOTION_DDOT":0},{"OBJECT_NAME":"FLOCK 4BE-24","OBJECT_ID":"2024-149AP","EPOCH":"2026-07-09T12:51:25.814016","CLASSIFICATION_TYPE":"U","MEAN_MOTION":15.43944372,"ECCENTRICITY":0.00044967,"INCLINATION":97.371,"RA_OF_ASC_NODE":275.232,"ARG_OF_PERICENTER":186.8328,"MEAN_ANOMALY":173.286,"EPHEMERIS_TYPE":0,"NORAD_CAT_ID":60505,"ELEMENT_SET_NO":999,"REV_AT_EPOCH":10581,"BSTAR":0.00034635346,"MEAN_MOTION_DOT":0.00015684,"MEAN_MOTION_DDOT":0},{"OBJECT_NAME":"FLOCK 4BE-29","OBJECT_ID":"2024-149AT","EPOCH":"2026-07-11T19:09:00.315648","CLASSIFICATION_TYPE":"U","MEAN_MOTION":15.45278458,"ECCENTRICITY":0.00030463,"INCLINATION":97.3808,"RA_OF_ASC_NODE":279.0564,"ARG_OF_PERICENTER":182.4298,"MEAN_ANOMALY":177.6937,"EPHEMERIS_TYPE":0,"NORAD_CAT_ID":60509,"ELEMENT_SET_NO":999,"REV_AT_EPOCH":10621,"BSTAR":0.00057137243,"MEAN_MOTION_DOT":0.00027166,"MEAN_MOTION_DDOT":0},{"OBJECT_NAME":"FLOCK 4BE-2","OBJECT_ID":"2024-149AV","EPOCH":"2026-07-12T00:59:44.627136","CLASSIFICATION_TYPE":"U","MEAN_MOTION":15.55608654,"ECCENTRICITY":0.00051443,"INCLINATION":97.3833,"RA_OF_ASC_NODE":281.0962,"ARG_OF_PERICENTER":180.9826,"MEAN_ANOMALY":179.142,"EPHEMERIS_TYPE":0,"NORAD_CAT_ID":60511,"ELEMENT_SET_NO":999,"REV_AT_EPOCH":10636,"BSTAR":0.00065246971,"MEAN_MOTION_DOT":0.0004483,"MEAN_MOTION_DDOT":0},{"OBJECT_NAME":"FLOCK 4BE-13","OBJECT_ID":"2024-149AW","EPOCH":"2026-07-11T19:29:03.800256","CLASSIFICATION_TYPE":"U","MEAN_MOTION":15.42552459,"ECCENTRICITY":0.00048675,"INCLINATION":97.3718,"RA_OF_ASC_NODE":277.4895,"ARG_OF_PERICENTER":165.8986,"MEAN_ANOMALY":194.2398,"EPHEMERIS_TYPE":0,"NORAD_CAT_ID":60512,"ELEMENT_SET_NO":999,"REV_AT_EPOCH":10616,"BSTAR":0.00020085109,"MEAN_MOTION_DOT":0.00008636,"MEAN_MOTION_DDOT":0},{"OBJECT_NAME":"FLOCK 4BE-27","OBJECT_ID":"2024-149AX","EPOCH":"2026-07-12T00:53:03.477120","CLASSIFICATION_TYPE":"U","MEAN_MOTION":15.34880048,"ECCENTRICITY":0.000366,"INCLINATION":97.3826,"RA_OF_ASC_NODE":274.9056,"ARG_OF_PERICENTER":192.0396,"MEAN_ANOMALY":168.076,"EPHEMERIS_TYPE":0,"NORAD_CAT_ID":60513,"ELEMENT_SET_NO":999,"REV_AT_EPOCH":10595,"BSTAR":0.00017734935,"MEAN_MOTION_DOT":0.00005918,"MEAN_MOTION_DDOT":0},{"OBJECT_NAME":"FLOCK 4BE-9","OBJECT_ID":"2024-149AY","EPOCH":"2026-07-12T00:32:31.890912","CLASSIFICATION_TYPE":"U","MEAN_MOTION":15.41530797,"ECCENTRICITY":0.0003423,"INCLINATION":97.3794,"RA_OF_ASC_NODE":277.546,"ARG_OF_PERICENTER":179.104,"MEAN_ANOMALY":181.0214,"EPHEMERIS_TYPE":0,"NORAD_CAT_ID":60514,"ELEMENT_SET_NO":999,"REV_AT_EPOCH":10614,"BSTAR":0.00022950459,"MEAN_MOTION_DOT":0.00009547,"MEAN_MOTION_DDOT":0},{"OBJECT_NAME":"FLOCK 4BE-6","OBJECT_ID":"2024-149BA","EPOCH":"2026-07-11T19:28:41.090016","CLASSIFICATION_TYPE":"U","MEAN_MOTION":15.4025302,"ECCENTRICITY":0.00039323,"INCLINATION":97.3792,"RA_OF_ASC_NODE":276.644,"ARG_OF_PERICENTER":183.6952,"MEAN_ANOMALY":176.4265,"EPHEMERIS_TYPE":0,"NORAD_CAT_ID":60516,"ELEMENT_SET_NO":999,"REV_AT_EPOCH":10606,"BSTAR":0.00021158877,"MEAN_MOTION_DOT":0.00008429,"MEAN_MOTION_DDOT":0},{"OBJECT_NAME":"FLOCK 4BE-14","OBJECT_ID":"2024-149BB","EPOCH":"2026-07-11T18:31:29.327808","CLASSIFICATION_TYPE":"U","MEAN_MOTION":15.41779712,"ECCENTRICITY":0.0004965,"INCLINATION":97.3697,"RA_OF_ASC_NODE":276.7638,"ARG_OF_PERICENTER":187.9835,"MEAN_ANOMALY":172.1334,"EPHEMERIS_TYPE":0,"NORAD_CAT_ID":60517,"ELEMENT_SET_NO":999,"REV_AT_EPOCH":10611,"BSTAR":0.00025733624,"MEAN_MOTION_DOT":0.00010809,"MEAN_MOTION_DDOT":0},{"OBJECT_NAME":"FLOCK 4BE-1","OBJECT_ID":"2024-149BC","EPOCH":"2026-07-12T12:57:26.423424","CLASSIFICATION_TYPE":"U","MEAN_MOTION":15.43448592,"ECCENTRICITY":0.0004749,"INCLINATION":97.3783,"RA_OF_ASC_NODE":278.9083,"ARG_OF_PERICENTER":183.5828,"MEAN_ANOMALY":176.5386,"EPHEMERIS_TYPE":0,"NORAD_CAT_ID":60518,"ELEMENT_SET_NO":999,"REV_AT_EPOCH":10628,"BSTAR":0.00027309,"MEAN_MOTION_DOT":0.00012138,"MEAN_MOTION_DDOT":0},{"OBJECT_NAME":"FLOCK 4BE-28","OBJECT_ID":"2024-149BD","EPOCH":"2026-07-11T17:43:10.547328","CLASSIFICATION_TYPE":"U","MEAN_MOTION":15.46087448,"ECCENTRICITY":0.00046568,"INCLINATION":97.375,"RA_OF_ASC_NODE":278.8988,"ARG_OF_PERICENTER":185.3336,"MEAN_ANOMALY":174.7865,"EPHEMERIS_TYPE":0,"NORAD_CAT_ID":60519,"ELEMENT_SET_NO":999,"REV_AT_EPOCH":10623,"BSTAR":0.00055740197,"MEAN_MOTION_DOT":0.00027248,"MEAN_MOTION_DDOT":0},{"OBJECT_NAME":"FLOCK 4BE-5","OBJECT_ID":"2024-149CV","EPOCH":"2026-07-11T18:33:48.655584","CLASSIFICATION_TYPE":"U","MEAN_MOTION":15.40972056,"ECCENTRICITY":0.00036872,"INCLINATION":97.3847,"RA_OF_ASC_NODE":277.0205,"ARG_OF_PERICENTER":181.8015,"MEAN_ANOMALY":178.3219,"EPHEMERIS_TYPE":0,"NORAD_CAT_ID":60559,"ELEMENT_SET_NO":999,"REV_AT_EPOCH":10606,"BSTAR":0.00022613181,"MEAN_MOTION_DOT":0.00009232,"MEAN_MOTION_DDOT":0}]}
